<?xml version='1.0' encoding='utf-8'?>
<q:quakeml xmlns="http://quakeml.org/xmlns/bed/1.2" xmlns:q="http://quakeml.org/xmlns/quakeml/1.2">
  <eventParameters publicID="smi:local/fdbfd691-f9ee-46b8-8746-9e86014e03ca">
    <event publicID="smi:local/a6d40695-0516-4aa7-9fcf-16cff0a37beb">
      <preferredOriginID>smi:local/1f323729-c306-4731-8a00-095b70463d93</preferredOriginID>
      <preferredMagnitudeID>smi:local/2999f151-259a-46fb-b7c4-747309e173d7</preferredMagnitudeID>
      <description>
        <text>LR</text>
      </description>
      <origin publicID="smi:local/1f323729-c306-4731-8a00-095b70463d93">
        <time>
          <value>2010-12-04T00:37:10.697000Z</value>
        </time>
        <latitude>
          <value>38.965194702045146</value>
        </latitude>
        <longitude>
          <value>-107.47855351319173</value>
        </longitude>
        <depth>
          <value>-1591.1305248737335</value>
        </depth>
      </origin>
      <magnitude publicID="smi:local/2999f151-259a-46fb-b7c4-747309e173d7">
        <mag>
          <value>1.4726105856245644</value>
        </mag>
        <type>ML</type>
      </magnitude>
      <pick publicID="smi:local/d2e8a8ac-47c2-4120-8c97-21e01a173c68">
        <time>
          <value>2010-12-04T00:37:11.028739Z</value>
        </time>
        <waveformID networkCode="EC" stationCode="EOR" locationCode="00" channelCode="Z"></waveformID>
        <phaseHint>P</phaseHint>
        <polarity>negative</polarity>
        <evaluationMode>manual</evaluationMode>
      </pick>
      <pick publicID="smi:local/6577027b-a114-4843-b274-323c9cd1c2fe">
        <time>
          <value>2010-12-04T00:37:10.859129Z</value>
        </time>
        <waveformID networkCode="EC" stationCode="LAY" locationCode="00" channelCode="Z"></waveformID>
        <phaseHint>P</phaseHint>
        <polarity>negative</polarity>
        <evaluationMode>manual</evaluationMode>
      </pick>
      <pick publicID="smi:local/ebc524d2-8c53-4912-b4cc-90686f8c6cff">
        <time>
          <value>2010-12-04T00:37:11.160015Z</value>
        </time>
        <waveformID networkCode="EC" stationCode="LAY" locationCode="00" channelCode="N"></waveformID>
        <phaseHint>S</phaseHint>
        <evaluationMode>manual</evaluationMode>
      </pick>
      <pick publicID="smi:local/8d68c400-f2ce-4f49-85c8-009aac6ce963">
        <time>
          <value>2010-12-04T00:37:11.109616Z</value>
          <uncertainty>0.001895904541015625</uncertainty>
        </time>
        <waveformID networkCode="EC" stationCode="LOXbh" locationCode="00" channelCode="Z"></waveformID>
        <phaseHint>P</phaseHint>
        <polarity>negative</polarity>
        <evaluationMode>manual</evaluationMode>
      </pick>
      <pick publicID="smi:local/f3665639-523f-4564-bf1a-b1d00d2ab478">
        <time>
          <value>2010-12-04T00:37:11.033752Z</value>
          <uncertainty>0.0025458335876464844</uncertainty>
        </time>
        <waveformID networkCode="EC" stationCode="NOX" locationCode="00" channelCode="Z"></waveformID>
        <phaseHint>P</phaseHint>
        <polarity>positive</polarity>
        <evaluationMode>manual</evaluationMode>
      </pick>
      <pick publicID="smi:local/be5a8ef5-8034-4b3e-86ae-c8efe94c165e">
        <time>
          <value>2010-12-04T00:37:11.479745Z</value>
          <uncertainty>0.0017344951629638672</uncertainty>
        </time>
        <waveformID networkCode="EC" stationCode="NOX" locationCode="00" channelCode="E"></waveformID>
        <phaseHint>S</phaseHint>
        <evaluationMode>manual</evaluationMode>
      </pick>
      <pick publicID="smi:local/0674f129-753a-444a-b0ea-fa27dd82d1b6">
        <time>
          <value>2010-12-04T00:37:11.105900Z</value>
          <uncertainty>0.0011510848999023438</uncertainty>
        </time>
        <waveformID networkCode="EC" stationCode="PEB" locationCode="00" channelCode="Z"></waveformID>
        <phaseHint>P</phaseHint>
        <polarity>negative</polarity>
        <evaluationMode>manual</evaluationMode>
      </pick>
      <pick publicID="smi:local/a0990aa0-93ae-48c7-a067-8072c5044029">
        <time>
          <value>2010-12-04T00:37:11.621576Z</value>
        </time>
        <waveformID networkCode="EC" stationCode="PEB" locationCode="00" channelCode="N"></waveformID>
        <phaseHint>S</phaseHint>
        <evaluationMode>manual</evaluationMode>
      </pick>
      <pick publicID="smi:local/4fd12f41-e1a7-4c91-b1ed-3389869b7f92">
        <time>
          <value>2010-12-04T00:37:10.926130Z</value>
        </time>
        <waveformID networkCode="EC" stationCode="RDP" locationCode="00" channelCode="Z"></waveformID>
        <phaseHint>P</phaseHint>
        <polarity>positive</polarity>
        <evaluationMode>manual</evaluationMode>
      </pick>
      <pick publicID="smi:local/75cf7d97-909f-4c2d-9eb1-00a41b067b4e">
        <time>
          <value>2010-12-04T00:37:11.274537Z</value>
        </time>
        <waveformID networkCode="EC" stationCode="RDP" locationCode="00" channelCode="N"></waveformID>
        <phaseHint>S</phaseHint>
        <evaluationMode>manual</evaluationMode>
      </pick>
      <pick publicID="smi:local/10ef94a4-0d79-4dc0-b9fa-0fdf4d517665">
        <time>
          <value>2010-12-04T00:37:11.007498Z</value>
        </time>
        <waveformID networkCode="EC" stationCode="RR2" locationCode="00" channelCode="Z"></waveformID>
        <phaseHint>P</phaseHint>
        <polarity>negative</polarity>
        <evaluationMode>manual</evaluationMode>
      </pick>
      <pick publicID="smi:local/119849f1-61f8-4ed1-8f99-b78391c20fbf">
        <time>
          <value>2010-12-04T00:37:11.461224Z</value>
        </time>
        <waveformID networkCode="EC" stationCode="RR2" locationCode="00" channelCode="E"></waveformID>
        <phaseHint>S</phaseHint>
        <evaluationMode>manual</evaluationMode>
      </pick>
      <pick publicID="smi:local/fa960b7c-be5e-48ed-9289-6d486409e63c">
        <time>
          <value>2010-12-04T00:37:10.871006Z</value>
        </time>
        <waveformID networkCode="EC" stationCode="RRL" locationCode="00" channelCode="Z"></waveformID>
        <phaseHint>P</phaseHint>
        <polarity>negative</polarity>
        <evaluationMode>manual</evaluationMode>
      </pick>
      <pick publicID="smi:local/94275214-48d1-433a-8bf5-d3e30ba2d495">
        <time>
          <value>2010-12-04T00:37:10.691341Z</value>
          <uncertainty>0.003582000732421875</uncertainty>
        </time>
        <waveformID networkCode="EC" stationCode="TNC" locationCode="00" channelCode="Z"></waveformID>
        <phaseHint>P</phaseHint>
        <polarity>positive</polarity>
        <evaluationMode>manual</evaluationMode>
      </pick>
      <pick publicID="smi:local/849e04bb-614b-43e8-978e-56f4565500fa">
        <time>
          <value>2010-12-04T00:37:10.696047Z</value>
        </time>
        <waveformID networkCode="EC" stationCode="TNE" locationCode="00" channelCode="Z"></waveformID>
        <phaseHint>P</phaseHint>
        <polarity>negative</polarity>
        <evaluationMode>manual</evaluationMode>
      </pick>
      <pick publicID="smi:local/68ed87f1-7d17-4489-8f8c-8d5f55c9641a">
        <time>
          <value>2010-12-04T00:37:10.843947Z</value>
        </time>
        <waveformID networkCode="EC" stationCode="TNE" locationCode="00" channelCode="E"></waveformID>
        <phaseHint>S</phaseHint>
        <evaluationMode>manual</evaluationMode>
      </pick>
      <pick publicID="smi:local/30509128-c8db-4246-88de-5ebb24f37ad9">
        <time>
          <value>2010-12-04T00:37:10.918842Z</value>
        </time>
        <waveformID networkCode="EC" stationCode="TNG" locationCode="00" channelCode="Z"></waveformID>
        <phaseHint>P</phaseHint>
        <polarity>negative</polarity>
        <evaluationMode>manual</evaluationMode>
      </pick>
      <pick publicID="smi:local/40130977-c4cb-4796-95be-4316738797d2">
        <time>
          <value>2010-12-04T00:37:11.286169Z</value>
        </time>
        <waveformID networkCode="EC" stationCode="TNG" locationCode="00" channelCode="E"></waveformID>
        <phaseHint>S</phaseHint>
        <evaluationMode>manual</evaluationMode>
      </pick>
      <amplitude publicID="smi:local/a36fa307-7ed3-4cdb-94c9-cb3d95259a31">
        <genericAmplitude/>
        <type>P</type>
        <timeWindow>
          <reference>2010-12-04T00:37:11.028739Z</reference>
          <begin>0.0</begin>
          <end>0.16913938522338867</end>
        </timeWindow>
        <pickID>smi:local/d2e8a8ac-47c2-4120-8c97-21e01a173c68</pickID>
      </amplitude>
      <amplitude publicID="smi:local/a2e49bac-706b-4b1b-a775-bae78a5972e1">
        <genericAmplitude/>
        <type>P</type>
        <timeWindow>
          <reference>2010-12-04T00:37:10.859129Z</reference>
          <begin>0.0</begin>
          <end>0.1815958023071289</end>
        </timeWindow>
        <pickID>smi:local/6577027b-a114-4843-b274-323c9cd1c2fe</pickID>
      </amplitude>
      <amplitude publicID="smi:local/c5d89c7b-e3ad-4df0-8bce-0b84f7026842">
        <genericAmplitude/>
        <type>S</type>
        <timeWindow>
          <reference>2010-12-04T00:37:11.160015Z</reference>
          <begin>0.0</begin>
          <end>0.17529630661010742</end>
        </timeWindow>
        <pickID>smi:local/ebc524d2-8c53-4912-b4cc-90686f8c6cff</pickID>
      </amplitude>
      <amplitude publicID="smi:local/8ca8577a-f660-4e36-9d80-5ea1a78199aa">
        <genericAmplitude/>
        <type>P</type>
        <timeWindow>
          <reference>2010-12-04T00:37:11.109616Z</reference>
          <begin>0.0</begin>
          <end>0.26464152336120605</end>
        </timeWindow>
        <pickID>smi:local/8d68c400-f2ce-4f49-85c8-009aac6ce963</pickID>
      </amplitude>
      <amplitude publicID="smi:local/90c44bbd-e880-4b38-8ed0-818e66c9a11c">
        <genericAmplitude/>
        <type>P</type>
        <timeWindow>
          <reference>2010-12-04T00:37:11.033752Z</reference>
          <begin>0.0</begin>
          <end>0.10649847984313965</end>
        </timeWindow>
        <pickID>smi:local/f3665639-523f-4564-bf1a-b1d00d2ab478</pickID>
      </amplitude>
      <amplitude publicID="smi:local/85365e90-5c84-4976-840f-29bea87de8d6">
        <genericAmplitude/>
        <type>S</type>
        <timeWindow>
          <reference>2010-12-04T00:37:11.479745Z</reference>
          <begin>0.0</begin>
          <end>0.1318066120147705</end>
        </timeWindow>
        <pickID>smi:local/be5a8ef5-8034-4b3e-86ae-c8efe94c165e</pickID>
      </amplitude>
      <amplitude publicID="smi:local/ccdf7556-11f8-45ee-bdd7-676b2467c2cf">
        <genericAmplitude/>
        <type>P</type>
        <timeWindow>
          <reference>2010-12-04T00:37:11.105900Z</reference>
          <begin>0.0</begin>
          <end>0.17973875999450684</end>
        </timeWindow>
        <pickID>smi:local/0674f129-753a-444a-b0ea-fa27dd82d1b6</pickID>
      </amplitude>
      <amplitude publicID="smi:local/46952e4e-b7be-4d3c-815a-de9eccb50e96">
        <genericAmplitude/>
        <type>S</type>
        <timeWindow>
          <reference>2010-12-04T00:37:11.621576Z</reference>
          <begin>0.0</begin>
          <end>0.1889057159423828</end>
        </timeWindow>
        <pickID>smi:local/a0990aa0-93ae-48c7-a067-8072c5044029</pickID>
      </amplitude>
      <amplitude publicID="smi:local/99881fb1-fa5c-4209-a4ed-36c079d95728">
        <genericAmplitude/>
        <type>P</type>
        <timeWindow>
          <reference>2010-12-04T00:37:10.926130Z</reference>
          <begin>0.0</begin>
          <end>0.14680171012878418</end>
        </timeWindow>
        <pickID>smi:local/4fd12f41-e1a7-4c91-b1ed-3389869b7f92</pickID>
      </amplitude>
      <amplitude publicID="smi:local/e14b146e-0ae2-456b-805e-16fbd80fdad2">
        <genericAmplitude/>
        <type>S</type>
        <timeWindow>
          <reference>2010-12-04T00:37:11.274537Z</reference>
          <begin>0.0</begin>
          <end>0.14374303817749023</end>
        </timeWindow>
        <pickID>smi:local/75cf7d97-909f-4c2d-9eb1-00a41b067b4e</pickID>
      </amplitude>
      <amplitude publicID="smi:local/afd0037d-a43c-4625-ac0d-e4ddb044fdbc">
        <genericAmplitude/>
        <type>P</type>
        <timeWindow>
          <reference>2010-12-04T00:37:11.007498Z</reference>
          <begin>0.0</begin>
          <end>0.13897299766540527</end>
        </timeWindow>
        <pickID>smi:local/10ef94a4-0d79-4dc0-b9fa-0fdf4d517665</pickID>
      </amplitude>
      <amplitude publicID="smi:local/988cb9b8-9186-4606-b735-4a8cd5175f58">
        <genericAmplitude/>
        <type>S</type>
        <timeWindow>
          <reference>2010-12-04T00:37:11.461224Z</reference>
          <begin>0.0</begin>
          <end>0.19424915313720703</end>
        </timeWindow>
        <pickID>smi:local/119849f1-61f8-4ed1-8f99-b78391c20fbf</pickID>
      </amplitude>
      <amplitude publicID="smi:local/2c680fab-0408-4121-9b70-f4580952a717">
        <genericAmplitude/>
        <type>P</type>
        <timeWindow>
          <reference>2010-12-04T00:37:10.871006Z</reference>
          <begin>0.0</begin>
          <end>0.11478328704833984</end>
        </timeWindow>
        <pickID>smi:local/fa960b7c-be5e-48ed-9289-6d486409e63c</pickID>
      </amplitude>
      <amplitude publicID="smi:local/11f51cae-f112-4381-888f-85b379f4b7f6">
        <genericAmplitude/>
        <type>P</type>
        <timeWindow>
          <reference>2010-12-04T00:37:10.691341Z</reference>
          <begin>0.0</begin>
          <end>0.06345438957214355</end>
        </timeWindow>
        <pickID>smi:local/94275214-48d1-433a-8bf5-d3e30ba2d495</pickID>
      </amplitude>
      <amplitude publicID="smi:local/1d19ae2a-c5d7-4f52-8193-261e8f7d7756">
        <genericAmplitude/>
        <type>P</type>
        <timeWindow>
          <reference>2010-12-04T00:37:10.696047Z</reference>
          <begin>0.0</begin>
          <end>0.06268715858459473</end>
        </timeWindow>
        <pickID>smi:local/849e04bb-614b-43e8-978e-56f4565500fa</pickID>
      </amplitude>
      <amplitude publicID="smi:local/4def1d64-a14b-47b9-ac04-8c749b5775ce">
        <genericAmplitude/>
        <type>S</type>
        <timeWindow>
          <reference>2010-12-04T00:37:10.843947Z</reference>
          <begin>0.0</begin>
          <end>0.14112401008605957</end>
        </timeWindow>
        <pickID>smi:local/68ed87f1-7d17-4489-8f8c-8d5f55c9641a</pickID>
      </amplitude>
      <amplitude publicID="smi:local/a117a3f9-1239-472c-b332-0db755d9b2d5">
        <genericAmplitude/>
        <type>P</type>
        <timeWindow>
          <reference>2010-12-04T00:37:10.918842Z</reference>
          <begin>0.0</begin>
          <end>0.14995813369750977</end>
        </timeWindow>
        <pickID>smi:local/30509128-c8db-4246-88de-5ebb24f37ad9</pickID>
      </amplitude>
      <amplitude publicID="smi:local/5c38e08d-ae83-4fab-84de-a419eec2fc1b">
        <genericAmplitude/>
        <type>S</type>
        <timeWindow>
          <reference>2010-12-04T00:37:11.286169Z</reference>
          <begin>0.0</begin>
          <end>0.15811872482299805</end>
        </timeWindow>
        <pickID>smi:local/40130977-c4cb-4796-95be-4316738797d2</pickID>
      </amplitude>
    </event>
    <event publicID="smi:local/4e909452-53dd-4fbf-bcc2-9b6d67ef2bda">
      <preferredOriginID>smi:local/3a6f04f2-1248-4606-946e-02c579ebfe53</preferredOriginID>
      <preferredMagnitudeID>smi:local/955a4eed-45a3-4539-90c4-e67001c05d84</preferredMagnitudeID>
      <description>
        <text>LR</text>
      </description>
      <origin publicID="smi:local/3a6f04f2-1248-4606-946e-02c579ebfe53">
        <time>
          <value>2011-02-17T22:47:20.329000Z</value>
        </time>
        <latitude>
          <value>38.95743384255483</value>
        </latitude>
        <longitude>
          <value>-107.47774493096756</value>
        </longitude>
        <depth>
          <value>-1843.1437611579893</value>
        </depth>
      </origin>
      <magnitude publicID="smi:local/955a4eed-45a3-4539-90c4-e67001c05d84">
        <mag>
          <value>3.0955499063986336</value>
        </mag>
        <type>ML</type>
      </magnitude>
      <pick publicID="smi:local/eb83471d-eccf-48b9-bd8f-a81389e61cdf">
        <time>
          <value>2011-02-17T22:47:20.539945Z</value>
        </time>
        <waveformID networkCode="EC" stationCode="EOR" locationCode="00" channelCode="Z"></waveformID>
        <phaseHint>P</phaseHint>
        <polarity>negative</polarity>
        <evaluationMode>manual</evaluationMode>
      </pick>
      <pick publicID="smi:local/e515480b-5e05-4c06-b122-6bc753512088">
        <time>
          <value>2011-02-17T22:47:21.077717Z</value>
          <uncertainty>0.00821232795715332</uncertainty>
        </time>
        <waveformID networkCode="EC" stationCode="EOR" locationCode="00" channelCode="E"></waveformID>
        <phaseHint>S</phaseHint>
        <evaluationMode>manual</evaluationMode>
      </pick>
      <pick publicID="smi:local/e764229c-4433-4689-b795-30b0e93ffae3">
        <time>
          <value>2011-02-17T22:47:20.625582Z</value>
        </time>
        <waveformID networkCode="EC" stationCode="FEN" locationCode="00" channelCode="Z"></waveformID>
        <phaseHint>P</phaseHint>
        <polarity>negative</polarity>
        <evaluationMode>manual</evaluationMode>
      </pick>
      <pick publicID="smi:local/a308459f-3af8-4d9d-88d9-fc0dc277609a">
        <time>
          <value>2011-02-17T22:47:21.212621Z</value>
        </time>
        <waveformID networkCode="EC" stationCode="FEN" locationCode="00" channelCode="E"></waveformID>
        <phaseHint>S</phaseHint>
        <evaluationMode>manual</evaluationMode>
      </pick>
      <pick publicID="smi:local/44102a4a-0bb4-4621-a295-5d368d14e4fb">
        <time>
          <value>2011-02-17T22:47:20.546846Z</value>
        </time>
        <waveformID networkCode="EC" stationCode="LAY" locationCode="00" channelCode="Z"></waveformID>
        <phaseHint>P</phaseHint>
        <polarity>negative</polarity>
        <evaluationMode>manual</evaluationMode>
      </pick>
      <pick publicID="smi:local/fcd2108b-2c90-42b2-94dc-8e9c6f80e75c">
        <time>
          <value>2011-02-17T22:47:21.005186Z</value>
        </time>
        <waveformID networkCode="EC" stationCode="LAY" locationCode="00" channelCode="E"></waveformID>
        <phaseHint>S</phaseHint>
        <evaluationMode>manual</evaluationMode>
      </pick>
      <pick publicID="smi:local/f27863f3-2a36-48be-bd71-54f4aabb80dc">
        <time>
          <value>2011-02-17T22:47:20.716441Z</value>
          <uncertainty>0.00488591194152832</uncertainty>
        </time>
        <waveformID networkCode="EC" stationCode="LOXbh" locationCode="00" channelCode="Z"></waveformID>
        <phaseHint>P</phaseHint>
        <polarity>negative</polarity>
        <evaluationMode>manual</evaluationMode>
      </pick>
      <pick publicID="smi:local/a1f83a23-b906-4182-bb56-7d295ba4f32f">
        <time>
          <value>2011-02-17T22:47:20.491398Z</value>
        </time>
        <waveformID networkCode="EC" stationCode="NMN" locationCode="00" channelCode="Z"></waveformID>
        <phaseHint>P</phaseHint>
        <polarity>negative</polarity>
        <evaluationMode>manual</evaluationMode>
      </pick>
      <pick publicID="smi:local/95eb4fc9-9d43-4f9d-838f-d1536898f6b1">
        <time>
          <value>2011-02-17T22:47:20.436019Z</value>
        </time>
        <waveformID networkCode="EC" stationCode="NMS" locationCode="00" channelCode="Z"></waveformID>
        <phaseHint>P</phaseHint>
        <polarity>negative</polarity>
        <evaluationMode>manual</evaluationMode>
      </pick>
      <pick publicID="smi:local/004c9101-4d7f-45d5-8d5f-b79e7af04d19">
        <time>
          <value>2011-02-17T22:47:20.809377Z</value>
        </time>
